KUIPER-00016            
1 63732U 25088J   25293.18036088  .00009140  00000+0  12241-2 0  9994
2 63732  51.9014  12.9239 0011295 322.8145  37.2034 14.79978897 26525
KUIPER-00018            
1 63733U 25088K   25293.23675099  .00008081  00000+0  11614-2 0  9998
2 63733  51.9029   1.3797 0012651 349.2991  10.7699 14.77096087 26693
KUIPER-00019            
1 63734U 25088L   25292.58624362  .00003836  00000+0  53266-3 0  9996
2 63734  51.9015   3.0579 0009206 359.1555   0.9390 14.79864335 26616
KUIPER-00020            
1 63735U 25088M   25293.19059907  .00008643  00000+0  11623-2 0  9993
2 63735  51.9022   4.3621 0007853 338.1547  21.9079 14.79885080 26854
KUIPER-00021            
1 63736U 25088N   25293.18846028  .00000757  00000+0  12846-3 0  9998
2 63736  51.9014   5.3694 0006063 339.9912  20.0812 14.79952740 26677
KUIPER-00023            
1 63737U 25088P   25292.44464008  .00001584  00000+0  23666-3 0  9992
2 63737  51.9029  10.1261 0011633 352.6996   7.3795 14.79970955 26846
KUIPER-00024            
1 63738U 25088Q   25293.31738714  .00004266  00000+0  59671-3 0  9993
2 63738  51.9046 353.6098 0004438 356.6647   3.4285 14.79324987 27278
KUIPER-00025            
1 63739U 25088R   25293.19151703  .00009358  00000+0  12562-2 0  9991
2 63739  51.9019   2.8876 0008870 334.8791  25.1739 14.79870303 26999
