<?xml version="1.0" encoding="UTF-8"?>
<ndm xmlns:xsi="http://www.w3.org/2001/XMLSchema-instance" xsi:noNamespaceSchemaLocation="https://sanaregistry.org/r/ndmxml_unqualified/ndmxml-2.0.0-master-2.0.xsd">
<omm id="CCSDS_OMM_VERS" version="2.0">
<header><CREATION_DATE/><ORIGINATOR/></header><body><segment><metadata><OBJECT_NAME>KUIPER-00016</OBJECT_NAME><OBJECT_ID>2025-088J</OBJECT_ID><CENTER_NAME>EARTH</CENTER_NAME><REF_FRAME>TEME</REF_FRAME><TIME_SYSTEM>UTC</TIME_SYSTEM><MEAN_ELEMENT_THEORY>SGP4</MEAN_ELEMENT_THEORY></metadata><data><meanElements><EPOCH>2025-10-20T04:19:43.180032</EPOCH><MEAN_MOTION>14.79978897</MEAN_MOTION><ECCENTRICITY>.00112955</ECCENTRICITY><INCLINATION>51.9014</INCLINATION><RA_OF_ASC_NODE>12.9239</RA_OF_ASC_NODE><ARG_OF_PERICENTER>322.8145</ARG_OF_PERICENTER><MEAN_ANOMALY>37.2034</MEAN_ANOMALY></meanElements><tleParameters><EPHEMERIS_TYPE>0</EPHEMERIS_TYPE><CLASSIFICATION_TYPE>U</CLASSIFICATION_TYPE><NORAD_CAT_ID>63732</NORAD_CAT_ID><ELEMENT_SET_NO>999</ELEMENT_SET_NO><REV_AT_EPOCH>2652</REV_AT_EPOCH><BSTAR>.12240678E-2</BSTAR><MEAN_MOTION_DOT>.914E-4</MEAN_MOTION_DOT><MEAN_MOTION_DDOT>0</MEAN_MOTION_DDOT></tleParameters></data></segment></body></omm>
<omm id="CCSDS_OMM_VERS" version="2.0">
<header><CREATION_DATE/><ORIGINATOR/></header><body><segment><metadata><OBJECT_NAME>KUIPER-00018</OBJECT_NAME><OBJECT_ID>2025-088K</OBJECT_ID><CENTER_NAME>EARTH</CENTER_NAME><REF_FRAME>TEME</REF_FRAME><TIME_SYSTEM>UTC</TIME_SYSTEM><MEAN_ELEMENT_THEORY>SGP4</MEAN_ELEMENT_THEORY></metadata><data><meanElements><EPOCH>2025-10-20T05:40:55.285536</EPOCH><MEAN_MOTION>14.77096087</MEAN_MOTION><ECCENTRICITY>.00126519</ECCENTRICITY><INCLINATION>51.9029</INCLINATION><RA_OF_ASC_NODE>1.3797</RA_OF_ASC_NODE><ARG_OF_PERICENTER>349.2991</ARG_OF_PERICENTER><MEAN_ANOMALY>10.7699</MEAN_ANOMALY></meanElements><tleParameters><EPHEMERIS_TYPE>0</EPHEMERIS_TYPE><CLASSIFICATION_TYPE>U</CLASSIFICATION_TYPE><NORAD_CAT_ID>63733</NORAD_CAT_ID><ELEMENT_SET_NO>999</ELEMENT_SET_NO><REV_AT_EPOCH>2669</REV_AT_EPOCH><BSTAR>.11614276E-2</BSTAR><MEAN_MOTION_DOT>.8081E-4</MEAN_MOTION_DOT><MEAN_MOTION_DDOT>0</MEAN_MOTION_DDOT></tleParameters></data></segment></body></omm>
<omm id="CCSDS_OMM_VERS" version="2.0">
<header><CREATION_DATE/><ORIGINATOR/></header><body><segment><metadata><OBJECT_NAME>KUIPER-00019</OBJECT_NAME><OBJECT_ID>2025-088L</OBJECT_ID><CENTER_NAME>EARTH</CENTER_NAME><REF_FRAME>TEME</REF_FRAME><TIME_SYSTEM>UTC</TIME_SYSTEM><MEAN_ELEMENT_THEORY>SGP4</MEAN_ELEMENT_THEORY></metadata><data><meanElements><EPOCH>2025-10-19T14:04:11.448768</EPOCH><MEAN_MOTION>14.79864335</MEAN_MOTION><ECCENTRICITY>.0009206</ECCENTRICITY><INCLINATION>51.9015</INCLINATION><RA_OF_ASC_NODE>3.0579</RA_OF_ASC_NODE><ARG_OF_PERICENTER>359.1555</ARG_OF_PERICENTER><MEAN_ANOMALY>0.9390</MEAN_ANOMALY></meanElements><tleParameters><EPHEMERIS_TYPE>0</EPHEMERIS_TYPE><CLASSIFICATION_TYPE>U</CLASSIFICATION_TYPE><NORAD_CAT_ID>63734</NORAD_CAT_ID><ELEMENT_SET_NO>999</ELEMENT_SET_NO><REV_AT_EPOCH>2661</REV_AT_EPOCH><BSTAR>.53266442E-3</BSTAR><MEAN_MOTION_DOT>.3836E-4</MEAN_MOTION_DOT><MEAN_MOTION_DDOT>0</MEAN_MOTION_DDOT></tleParameters></data></segment></body></omm>
<omm id="CCSDS_OMM_VERS" version="2.0">
<header><CREATION_DATE/><ORIGINATOR/></header><body><segment><metadata><OBJECT_NAME>KUIPER-00020</OBJECT_NAME><OBJECT_ID>2025-088M</OBJECT_ID><CENTER_NAME>EARTH</CENTER_NAME><REF_FRAME>TEME</REF_FRAME><TIME_SYSTEM>UTC</TIME_SYSTEM><MEAN_ELEMENT_THEORY>SGP4</MEAN_ELEMENT_THEORY></metadata><data><meanElements><EPOCH>2025-10-20T04:34:27.759648</EPOCH><MEAN_MOTION>14.79885080</MEAN_MOTION><ECCENTRICITY>.00078534</ECCENTRICITY><INCLINATION>51.9022</INCLINATION><RA_OF_ASC_NODE>4.3621</RA_OF_ASC_NODE><ARG_OF_PERICENTER>338.1547</ARG_OF_PERICENTER><MEAN_ANOMALY>21.9079</MEAN_ANOMALY></meanElements><tleParameters><EPHEMERIS_TYPE>0</EPHEMERIS_TYPE><CLASSIFICATION_TYPE>U</CLASSIFICATION_TYPE><NORAD_CAT_ID>63735</NORAD_CAT_ID><ELEMENT_SET_NO>999</ELEMENT_SET_NO><REV_AT_EPOCH>2685</REV_AT_EPOCH><BSTAR>.11622784E-2</BSTAR><MEAN_MOTION_DOT>.8643E-4</MEAN_MOTION_DOT><MEAN_MOTION_DDOT>0</MEAN_MOTION_DDOT></tleParameters></data></segment></body></omm>
<omm id="CCSDS_OMM_VERS" version="2.0">
<header><CREATION_DATE/><ORIGINATOR/></header><body><segment><metadata><OBJECT_NAME>KUIPER-00021</OBJECT_NAME><OBJECT_ID>2025-088N</OBJECT_ID><CENTER_NAME>EARTH</CENTER_NAME><REF_FRAME>TEME</REF_FRAME><TIME_SYSTEM>UTC</TIME_SYSTEM><MEAN_ELEMENT_THEORY>SGP4</MEAN_ELEMENT_THEORY></metadata><data><meanElements><EPOCH>2025-10-20T04:31:22.968192</EPOCH><MEAN_MOTION>14.79952740</MEAN_MOTION><ECCENTRICITY>.00060633</ECCENTRICITY><INCLINATION>51.9014</INCLINATION><RA_OF_ASC_NODE>5.3694</RA_OF_ASC_NODE><ARG_OF_PERICENTER>339.9912</ARG_OF_PERICENTER><MEAN_ANOMALY>20.0812</MEAN_ANOMALY></meanElements><tleParameters><EPHEMERIS_TYPE>0</EPHEMERIS_TYPE><CLASSIFICATION_TYPE>U</CLASSIFICATION_TYPE><NORAD_CAT_ID>63736</NORAD_CAT_ID><ELEMENT_SET_NO>999</ELEMENT_SET_NO><REV_AT_EPOCH>2667</REV_AT_EPOCH><BSTAR>.12846156E-3</BSTAR><MEAN_MOTION_DOT>.757E-5</MEAN_MOTION_DOT><MEAN_MOTION_DDOT>0</MEAN_MOTION_DDOT></tleParameters></data></segment></body></omm>
<omm id="CCSDS_OMM_VERS" version="2.0">
<header><CREATION_DATE/><ORIGINATOR/></header><body><segment><metadata><OBJECT_NAME>KUIPER-00023</OBJECT_NAME><OBJECT_ID>2025-088P</OBJECT_ID><CENTER_NAME>EARTH</CENTER_NAME><REF_FRAME>TEME</REF_FRAME><TIME_SYSTEM>UTC</TIME_SYSTEM><MEAN_ELEMENT_THEORY>SGP4</MEAN_ELEMENT_THEORY></metadata><data><meanElements><EPOCH>2025-10-19T10:40:16.902912</EPOCH><MEAN_MOTION>14.79970955</MEAN_MOTION><ECCENTRICITY>.00116336</ECCENTRICITY><INCLINATION>51.9029</INCLINATION><RA_OF_ASC_NODE>10.1261</RA_OF_ASC_NODE><ARG_OF_PERICENTER>352.6996</ARG_OF_PERICENTER><MEAN_ANOMALY>7.3795</MEAN_ANOMALY></meanElements><tleParameters><EPHEMERIS_TYPE>0</EPHEMERIS_TYPE><CLASSIFICATION_TYPE>U</CLASSIFICATION_TYPE><NORAD_CAT_ID>63737</NORAD_CAT_ID><ELEMENT_SET_NO>999</ELEMENT_SET_NO><REV_AT_EPOCH>2684</REV_AT_EPOCH><BSTAR>.23665515E-3</BSTAR><MEAN_MOTION_DOT>.1584E-4</MEAN_MOTION_DOT><MEAN_MOTION_DDOT>0</MEAN_MOTION_DDOT></tleParameters></data></segment></body></omm>
<omm id="CCSDS_OMM_VERS" version="2.0">
<header><CREATION_DATE/><ORIGINATOR/></header><body><segment><metadata><OBJECT_NAME>KUIPER-00024</OBJECT_NAME><OBJECT_ID>2025-088Q</OBJECT_ID><CENTER_NAME>EARTH</CENTER_NAME><REF_FRAME>TEME</REF_FRAME><TIME_SYSTEM>UTC</TIME_SYSTEM><MEAN_ELEMENT_THEORY>SGP4</MEAN_ELEMENT_THEORY></metadata><data><meanElements><EPOCH>2025-10-20T07:37:02.248896</EPOCH><MEAN_MOTION>14.79324987</MEAN_MOTION><ECCENTRICITY>.00044381</ECCENTRICITY><INCLINATION>51.9046</INCLINATION><RA_OF_ASC_NODE>353.6098</RA_OF_ASC_NODE><ARG_OF_PERICENTER>356.6647</ARG_OF_PERICENTER><MEAN_ANOMALY>3.4285</MEAN_ANOMALY></meanElements><tleParameters><EPHEMERIS_TYPE>0</EPHEMERIS_TYPE><CLASSIFICATION_TYPE>U</CLASSIFICATION_TYPE><NORAD_CAT_ID>63738</NORAD_CAT_ID><ELEMENT_SET_NO>999</ELEMENT_SET_NO><REV_AT_EPOCH>2727</REV_AT_EPOCH><BSTAR>.59670507E-3</BSTAR><MEAN_MOTION_DOT>.4266E-4</MEAN_MOTION_DOT><MEAN_MOTION_DDOT>0</MEAN_MOTION_DDOT></tleParameters></data></segment></body></omm>
<omm id="CCSDS_OMM_VERS" version="2.0">
<header><CREATION_DATE/><ORIGINATOR/></header><body><segment><metadata><OBJECT_NAME>KUIPER-00025</OBJECT_NAME><OBJECT_ID>2025-088R</OBJECT_ID><CENTER_NAME>EARTH</CENTER_NAME><REF_FRAME>TEME</REF_FRAME><TIME_SYSTEM>UTC</TIME_SYSTEM><MEAN_ELEMENT_THEORY>SGP4</MEAN_ELEMENT_THEORY></metadata><data><meanElements><EPOCH>2025-10-20T04:35:47.071392</EPOCH><MEAN_MOTION>14.79870303</MEAN_MOTION><ECCENTRICITY>.00088704</ECCENTRICITY><INCLINATION>51.9019</INCLINATION><RA_OF_ASC_NODE>2.8876</RA_OF_ASC_NODE><ARG_OF_PERICENTER>334.8791</ARG_OF_PERICENTER><MEAN_ANOMALY>25.1739</MEAN_ANOMALY></meanElements><tleParameters><EPHEMERIS_TYPE>0</EPHEMERIS_TYPE><CLASSIFICATION_TYPE>U</CLASSIFICATION_TYPE><NORAD_CAT_ID>63739</NORAD_CAT_ID><ELEMENT_SET_NO>999</ELEMENT_SET_NO><REV_AT_EPOCH>2699</REV_AT_EPOCH><BSTAR>.12562174E-2</BSTAR><MEAN_MOTION_DOT>.9358E-4</MEAN_MOTION_DOT><MEAN_MOTION_DDOT>0</MEAN_MOTION_DDOT></tleParameters></data></segment></body></omm>

</ndm>
